{"type": "FeatureCollection", "features": [ {"type": "Feature", "properties": {"norad_id": 35480, "name": "IRIDIUM 33 DEB", "group": "iridium-33-debris", "lat": 82.0287044102171, "lon": 46.89086406357108, "alt_km": 707.6850962212484, "timestamp": "2025-12-24T11:33:00.403184+00:00", "meta": {"OBJECT_NAME": "IRIDIUM 33 DEB", "OBJECT_ID": "1997-051QA", "EPOCH": "2025-12-23T11:58:47.175168", "MEAN_MOTION": 14.49804524, "ECCENTRICITY": 0.00162048, "INCLINATION": 86.3563, "RA_OF_ASC_NODE": 20.2477, "ARG_OF_PERICENTER": 73.1284, "MEAN_ANOMALY": 287.1696, "EPHEMERIS_TYPE": 0, "CLASSIFICATION_TYPE": "U", "NORAD_CAT_ID": 35480, "ELEMENT_SET_NO": 999, "REV_AT_EPOCH": 87187, "BSTAR": 0.00052903824, "MEAN_MOTION_DOT": 2.063e-05, "MEAN_MOTION_DDOT": 0}, "tle": {"line1": "1 35480U 97051QA  25357.49915712  .00002063  00000+0  52904-3 0  9995", "line2": "2 35480  86.3563  20.2477 0016204  73.1284 287.1696 14.49804524871874"}}, "geometry": {"type": "Point", "coordinates": [46.89086406357108, 82.0287044102171]}}, {"type": "Feature", "properties": {"norad_id": 35484, "name": "IRIDIUM 33 DEB", "group": "iridium-33-debris", "lat": 14.816887298523959, "lon": 166.28509998517546, "alt_km": 566.3120829711215, "timestamp": "2025-12-24T11:33:00.403200+00:00", "meta": {"OBJECT_NAME": "IRIDIUM 33 DEB", "OBJECT_ID": "1997-051QE", "EPOCH": "2025-12-23T05:59:10.354560", "MEAN_MOTION": 14.99264182, "ECCENTRICITY": 0.00245796, "INCLINATION": 86.3609, "RA_OF_ASC_NODE": 347.8264, "ARG_OF_PERICENTER": 91.5392, "MEAN_ANOMALY": 268.8655, "EPHEMERIS_TYPE": 0, "CLASSIFICATION_TYPE": "U", "NORAD_CAT_ID": 35484, "ELEMENT_SET_NO": 999, "REV_AT_EPOCH": 62173, "BSTAR": 0.0029536278, "MEAN_MOTION_DOT": 0.00036413, "MEAN_MOTION_DDOT": 0}, "tle": {"line1": "1 35484U 97051QE  25357.24942540  .00036413  00000+0  29536-2 0  9991", "line2": "2 35484  86.3609 347.8264 0024579  91.5392 268.8655 14.99264182621733"}}, "geometry": {"type": "Point", "coordinates": [166.28509998517546, 14.816887298523959]}}, {"type": "Feature", "properties": {"norad_id": 35488, "name": "IRIDIUM 33 DEB", "group": "iridium-33-debris", "lat": -32.7063604780789, "lon": -66.90185952159749, "alt_km": 609.0350642588774, "timestamp": "2025-12-24T11:33:00.403229+00:00", "meta": {"OBJECT_NAME": "IRIDIUM 33 DEB", "OBJECT_ID": "1997-051QJ", "EPOCH": "2025-12-22T19:13:13.565280", "MEAN_MOTION": 14.8329676, "ECCENTRICITY": 0.00284188, "INCLINATION": 86.3248, "RA_OF_ASC_NODE": 296.2385, "ARG_OF_PERICENTER": 9.7501, "MEAN_ANOMALY": 350.4267, "EPHEMERIS_TYPE": 0, "CLASSIFICATION_TYPE": "U", "NORAD_CAT_ID": 35488, "ELEMENT_SET_NO": 999, "REV_AT_EPOCH": 88415, "BSTAR": 0.0016428334, "MEAN_MOTION_DOT": 0.00013576, "MEAN_MOTION_DDOT": 0}, "tle": {"line1": "1 35488U 97051QJ  25356.80085145  .00013576  00000+0  16428-2 0  9996", "line2": "2 35488  86.3248 296.2385 0028418   9.7501 350.4267 14.83296760884150"}}, "geometry": {"type": "Point", "coordinates": [-66.90185952159749, -32.7063604780789]}}, {"type": "Feature", "properties": {"norad_id": 35616, "name": "IRIDIUM 33 DEB", "group": "iridium-33-debris", "lat": 73.51042440745277, "lon": -7.157878678997948, "alt_km": 610.7284162803344, "timestamp": "2025-12-24T11:33:00.403242+00:00", "meta": {"OBJECT_NAME": "IRIDIUM 33 DEB", "OBJECT_ID": "1997-051QN", "EPOCH": "2025-12-21T16:46:45.287328", "MEAN_MOTION": 14.82015021, "ECCENTRICITY": 0.00114093, "INCLINATION": 86.3545, "RA_OF_ASC_NODE": 341.6744, "ARG_OF_PERICENTER": 134.0095, "MEAN_ANOMALY": 226.2069, "EPHEMERIS_TYPE": 0, "CLASSIFICATION_TYPE": "U", "NORAD_CAT_ID": 35616, "ELEMENT_SET_NO": 999, "REV_AT_EPOCH": 87707, "BSTAR": 0.0013754653, "MEAN_MOTION_DOT": 0.00010957, "MEAN_MOTION_DDOT": 0}, "tle": {"line1": "1 35616U 97051QN  25355.69913527  .00010957  00000+0  13755-2 0  9999", "line2": "2 35616  86.3545 341.6744 0011409 134.0095 226.2069 14.82015021877070"}}, "geometry": {"type": "Point", "coordinates": [-7.157878678997948, 73.51042440745277]}}, {"type": "Feature", "properties": {"norad_id": 35618, "name": "IRIDIUM 33 DEB", "group": "iridium-33-debris", "lat": 29.2595893969983, "lon": -9.573745073655125, "alt_km": 702.978643538987, "timestamp": "2025-12-24T11:33:00.403253+00:00", "meta": {"OBJECT_NAME": "IRIDIUM 33 DEB", "OBJECT_ID": "1997-051QQ", "EPOCH": "2025-12-21T17:16:24.492288", "MEAN_MOTION": 14.52331103, "ECCENTRICITY": 0.00284149, "INCLINATION": 86.341, "RA_OF_ASC_NODE": 349.5786, "ARG_OF_PERICENTER": 351.4344, "MEAN_ANOMALY": 8.6373, "EPHEMERIS_TYPE": 0, "CLASSIFICATION_TYPE": "U", "NORAD_CAT_ID": 35618, "ELEMENT_SET_NO": 999, "REV_AT_EPOCH": 65524, "BSTAR": 0.00039049847, "MEAN_MOTION_DOT": 1.617e-05, "MEAN_MOTION_DDOT": 0}, "tle": {"line1": "1 35618U 97051QQ  25355.71972792  .00001617  00000+0  39050-3 0  9993", "line2": "2 35618  86.3410 349.5786 0028414 351.4344   8.6373 14.52331103655244"}}, "geometry": {"type": "Point", "coordinates": [-9.573745073655125, 29.2595893969983]}}, {"type": "Feature", "properties": {"norad_id": 35620, "name": "IRIDIUM 33 DEB", "group": "iridium-33-debris", "lat": 44.15789957976433, "lon": 28.986231379543227, "alt_km": 748.7999627432719, "timestamp": "2025-12-24T11:33:00.403263+00:00", "meta": {"OBJECT_NAME": "IRIDIUM 33 DEB", "OBJECT_ID": "1997-051QS", "EPOCH": "2025-12-24T00:53:30.548832", "MEAN_MOTION": 14.38385762, "ECCENTRICITY": 0.0138469, "INCLINATION": 86.3889, "RA_OF_ASC_NODE": 212.6892, "ARG_OF_PERICENTER": 221.3129, "MEAN_ANOMALY": 137.7531, "EPHEMERIS_TYPE": 0, "CLASSIFICATION_TYPE": "U", "NORAD_CAT_ID": 35620, "ELEMENT_SET_NO": 999, "REV_AT_EPOCH": 60128, "BSTAR": 0.0046388, "MEAN_MOTION_DOT": 0.00015845, "MEAN_MOTION_DDOT": 0}, "tle": {"line1": "1 35620U 97051QS  25358.03715913  .00015845  00000+0  46388-2 0  9993", "line2": "2 35620  86.3889 212.6892 0138469 221.3129 137.7531 14.38385762601282"}}, "geometry": {"type": "Point", "coordinates": [28.986231379543227, 44.15789957976433]}}, {"type": "Feature", "properties": {"norad_id": 35622, "name": "IRIDIUM 33 DEB", "group": "iridium-33-debris", "lat": 5.236595309333335, "lon": 77.46314586689611, "alt_km": 551.8744524891226, "timestamp": "2025-12-24T11:33:00.403274+00:00", "meta": {"OBJECT_NAME": "IRIDIUM 33 DEB", "OBJECT_ID": "1997-051QU", "EPOCH": "2025-12-23T17:21:42.229152", "MEAN_MOTION": 15.05849301, "ECCENTRICITY": 0.0003572, "INCLINATION": 86.199, "RA_OF_ASC_NODE": 258.1866, "ARG_OF_PERICENTER": 286.0081, "MEAN_ANOMALY": 102.9668, "EPHEMERIS_TYPE": 0, "CLASSIFICATION_TYPE": "U", "NORAD_CAT_ID": 35622, "ELEMENT_SET_NO": 999, "REV_AT_EPOCH": 87525, "BSTAR": 0.0038142437, "MEAN_MOTION_DOT": 0.00055737, "MEAN_MOTION_DDOT": 0}, "tle": {"line1": "1 35622U 97051QU  25357.72340543  .00055737  00000+0  38142-2 0  9996", "line2": "2 35622  86.1990 258.1866 0003572 286.0081 102.9668 15.05849301875256"}}, "geometry": {"type": "Point", "coordinates": [77.46314586689611, 5.236595309333335]}}, {"type": "Feature", "properties": {"norad_id": 35628, "name": "IRIDIUM 33 DEB", "group": "iridium-33-debris", "lat": -33.89920795209625, "lon": -173.70867514950555, "alt_km": 673.873780366067, "timestamp": "2025-12-24T11:33:00.403285+00:00", "meta": {"OBJECT_NAME": "IRIDIUM 33 DEB", "OBJECT_ID": "1997-051RA", "EPOCH": "2025-12-23T18:12:55.206720", "MEAN_MOTION": 14.67731928, "ECCENTRICITY": 0.00093939, "INCLINATION": 86.3568, "RA_OF_ASC_NODE": 4.1597, "ARG_OF_PERICENTER": 300.2687, "MEAN_ANOMALY": 59.7597, "EPHEMERIS_TYPE": 0, "CLASSIFICATION_TYPE": "U", "NORAD_CAT_ID": 35628, "ELEMENT_SET_NO": 999, "REV_AT_EPOCH": 86608, "BSTAR": 0.0013868972, "MEAN_MOTION_DOT": 7.927e-05, "MEAN_MOTION_DDOT": 0}, "tle": {"line1": "1 35628U 97051RA  25357.75897230  .00007927  00000+0  13869-2 0  9992", "line2": "2 35628  86.3568   4.1597 0009393 300.2687  59.7597 14.67731928866086"}}, "geometry": {"type": "Point", "coordinates": [-173.70867514950555, -33.89920795209625]}}, {"type": "Feature", "properties": {"norad_id": 35631, "name": "IRIDIUM 33 DEB", "group": "iridium-33-debris", "lat": -28.51249566989571, "lon": 13.940400981931079, "alt_km": 745.2607988682566, "timestamp": "2025-12-24T11:33:00.403298+00:00", "meta": {"OBJECT_NAME": "IRIDIUM 33 DEB", "OBJECT_ID": "1997-051RD", "EPOCH": "2025-12-23T19:55:07.145184", "MEAN_MOTION": 14.47339905, "ECCENTRICITY": 0.00192581, "INCLINATION": 86.366, "RA_OF_ASC_NODE": 16.1993, "ARG_OF_PERICENTER": 85.1182, "MEAN_ANOMALY": 95.1858, "EPHEMERIS_TYPE": 0, "CLASSIFICATION_TYPE": "U", "NORAD_CAT_ID": 35631, "ELEMENT_SET_NO": 999, "REV_AT_EPOCH": 87357, "BSTAR": 0.00033517524, "MEAN_MOTION_DOT": 1.25e-05, "MEAN_MOTION_DDOT": 0}, "tle": {"line1": "1 35631U 97051RD  25357.82994381  .00001250  00000+0  33518-3 0  9996", "line2": "2 35631  86.3660  16.1993 0019258  85.1182  95.1858 14.47339905873579"}}, "geometry": {"type": "Point", "coordinates": [13.940400981931079, -28.51249566989571]}}, {"type": "Feature", "properties": {"norad_id": 35680, "name": "IRIDIUM 33 DEB", "group": "iridium-33-debris", "lat": -85.1504229287926, "lon": -37.153456600243025, "alt_km": 736.6422457798544, "timestamp": "2025-12-24T11:33:00.403308+00:00", "meta": {"OBJECT_NAME": "IRIDIUM 33 DEB", "OBJECT_ID": "1997-051RJ", "EPOCH": "2025-12-23T19:54:46.036800", "MEAN_MOTION": 14.21087614, "ECCENTRICITY": 0.01506225, "INCLINATION": 86.102, "RA_OF_ASC_NODE": 16.6115, "ARG_OF_PERICENTER": 242.9908, "MEAN_ANOMALY": 297.7564, "EPHEMERIS_TYPE": 0, "CLASSIFICATION_TYPE": "U", "NORAD_CAT_ID": 35680, "ELEMENT_SET_NO": 999, "REV_AT_EPOCH": 60858, "BSTAR": 0.0032353227, "MEAN_MOTION_DOT": 7.897e-05, "MEAN_MOTION_DDOT": 0}, "tle": {"line1": "1 35680U 97051RJ  25357.82969950  .00007897  00000+0  32353-2 0  9992", "line2": "2 35680  86.1020  16.6115 0150622 242.9908 297.7564 14.21087614608582"}}, "geometry": {"type": "Point", "coordinates": [-37.153456600243025, -85.1504229287926]}}]}